start=new Date('2022-09-25T00:00:00.000Z').valueOf();
sats=[{"RA_OF_ASC_NODE":"84.0910","RCS_SIZE":"LARGE","EPHEMERIS_TYPE":"0","NORAD_CAT_ID":"50832","GP_ID":"213405006","INCLINATION":"53.2171","COUNTRY_CODE":"US","OBJECT_ID":"2022-001AF","ELEMENT_SET_NO":"999","MEAN_MOTION_DDOT":"0.0000000000000","APOAPSIS":"540.778","REF_FRAME":"TEME","DECAY_DATE":null,"SEMIMAJOR_AXIS":"6917.883","TIME_SYSTEM":"UTC","TLE_LINE2":"2 50832  53.2171  84.0910 0001489  68.9980 291.1172 15.08839138 39767","FILE":"3582616","ECCENTRICITY":"0.00014890","REV_AT_EPOCH":"3976","MEAN_MOTION_DOT":"-0.00000048","BSTAR":"0.00001508400000","CLASSIFICATION_TYPE":"U","MEAN_MOTION":"15.08839138","OBJECT_TYPE":"PAYLOAD","LAUNCH_DATE":"2022-01-06","EPOCH":"2022-09-24T18:33:27.343296","TLE_LINE1":"1 50832U 22001AF  22267.77323314 -.00000048  00000-0  15084-4 0  9997","OBJECT_NAME":"STARLINK-3328","PERIOD":"95.438","CENTER_NAME":"EARTH","ARG_OF_PERICENTER":"68.9980","MEAN_ELEMENT_THEORY":"SGP4","MEAN_ANOMALY":"291.1172","PERIAPSIS":"538.718","SITE":"AFETR"},{"RCS_SIZE":"LARGE","EPHEMERIS_TYPE":"0","GP_ID":"213405256","NORAD_CAT_ID":"50833","RA_OF_ASC_NODE":"74.0089","DECAY_DATE":null,"REF_FRAME":"TEME","COUNTRY_CODE":"US","INCLINATION":"53.2191","MEAN_MOTION_DDOT":"0.0000000000000","APOAPSIS":"541.622","ELEMENT_SET_NO":"999","OBJECT_ID":"2022-001AG","REV_AT_EPOCH":"3990","MEAN_MOTION_DOT":"0.00001299","SEMIMAJOR_AXIS":"6917.903","TIME_SYSTEM":"UTC","ECCENTRICITY":"0.00026800","FILE":"3582616","TLE_LINE2":"2 50833  53.2191  74.0089 0002680 186.2634 173.8325 15.08832552 39905","PERIAPSIS":"537.914","MEAN_ANOMALY":"173.8325","PERIOD":"95.438","CENTER_NAME":"EARTH","MEAN_ELEMENT_THEORY":"SGP4","ARG_OF_PERICENTER":"186.2634","SITE":"AFETR","MEAN_MOTION":"15.08832552","OBJECT_TYPE":"PAYLOAD","BSTAR":"0.00009971300000","CLASSIFICATION_TYPE":"U","TLE_LINE1":"1 50833U 22001AG  22267.78887524  .00001299  00000-0  99713-4 0  9996","EPOCH":"2022-09-24T18:55:58.820736","OBJECT_NAME":"STARLINK-3316","LAUNCH_DATE":"2022-01-06"},{"REF_FRAME":"TEME","DECAY_DATE":null,"COUNTRY_CODE":"US","INCLINATION":"53.2166","APOAPSIS":"540.976","MEAN_MOTION_DDOT":"0.0000000000000","OBJECT_ID":"2022-001AH","ELEMENT_SET_NO":"999","RCS_SIZE":"LARGE","EPHEMERIS_TYPE":"0","GP_ID":"213406508","NORAD_CAT_ID":"50834","RA_OF_ASC_NODE":"84.1408","PERIAPSIS":"538.476","PERIOD":"95.437","MEAN_ELEMENT_THEORY":"SGP4","ARG_OF_PERICENTER":"54.3503","MEAN_ANOMALY":"305.7657","CENTER_NAME":"EARTH","SITE":"AFETR","MEAN_MOTION":"15.08846479","OBJECT_TYPE":"PAYLOAD","BSTAR":"0.00008492000000","CLASSIFICATION_TYPE":"U","EPOCH":"2022-09-24T18:17:32.482464","TLE_LINE1":"1 50834U 22001AH  22267.76218151  .00001064  00000-0  84920-4 0  9993","OBJECT_NAME":"STARLINK-3331","LAUNCH_DATE":"2022-01-06","REV_AT_EPOCH":"3975","MEAN_MOTION_DOT":"0.00001064","SEMIMAJOR_AXIS":"6917.861","TIME_SYSTEM":"UTC","ECCENTRICITY":"0.00018070","FILE":"3582616","TLE_LINE2":"2 50834  53.2166  84.1408 0001807  54.3503 305.7657 15.08846479 39755"},{"MEAN_MOTION_DOT":"0.00001151","REV_AT_EPOCH":"3975","FILE":"3582616","TLE_LINE2":"2 50835  53.2184  84.1616 0001748  64.8909 295.2265 15.08839869 39750","ECCENTRICITY":"0.00017480","TIME_SYSTEM":"UTC","SEMIMAJOR_AXIS":"6917.881","SITE":"AFETR","MEAN_ANOMALY":"295.2265","PERIOD":"95.438","MEAN_ELEMENT_THEORY":"SGP4","CENTER_NAME":"EARTH","ARG_OF_PERICENTER":"64.8909","PERIAPSIS":"538.537","LAUNCH_DATE":"2022-01-06","OBJECT_NAME":"STARLINK-3310","EPOCH":"2022-09-24T18:06:58.014432","TLE_LINE1":"1 50835U 22001AJ  22267.75483813  .00001151  00000-0  90399-4 0  9996","CLASSIFICATION_TYPE":"U","BSTAR":"0.00009039900000","OBJECT_TYPE":"PAYLOAD","MEAN_MOTION":"15.08839869","NORAD_CAT_ID":"50835","GP_ID":"213406258","EPHEMERIS_TYPE":"0","RCS_SIZE":"LARGE","RA_OF_ASC_NODE":"84.1616","DECAY_DATE":null,"REF_FRAME":"TEME","OBJECT_ID":"2022-001AJ","ELEMENT_SET_NO":"999","APOAPSIS":"540.955","MEAN_MOTION_DDOT":"0.0000000000000","INCLINATION":"53.2184","COUNTRY_CODE":"US"},{"EPHEMERIS_TYPE":"0","RCS_SIZE":"LARGE","GP_ID":"213405507","NORAD_CAT_ID":"50836","RA_OF_ASC_NODE":"84.1180","DECAY_DATE":null,"REF_FRAME":"TEME","COUNTRY_CODE":"US","INCLINATION":"53.2184","MEAN_MOTION_DDOT":"0.0000000000000","APOAPSIS":"541.517","OBJECT_ID":"2022-001AK","ELEMENT_SET_NO":"999","MEAN_MOTION_DOT":"-0.00003678","REV_AT_EPOCH":"3965","TIME_SYSTEM":"UTC","SEMIMAJOR_AXIS":"6917.835","ECCENTRICITY":"0.00026270","FILE":"3582616","TLE_LINE2":"2 50836  53.2184  84.1180 0002627  73.9960 286.1321 15.08854799 39652","PERIAPSIS":"537.883","PERIOD":"95.437","CENTER_NAME":"EARTH","ARG_OF_PERICENTER":"73.9960","MEAN_ELEMENT_THEORY":"SGP4","MEAN_ANOMALY":"286.1321","SITE":"AFETR","OBJECT_TYPE":"PAYLOAD","MEAN_MOTION":"15.08854799","CLASSIFICATION_TYPE":"U","BSTAR":"-0.00021297000000","OBJECT_NAME":"STARLINK-3330","TLE_LINE1":"1 50836U 22001AK  22267.76587306 -.00003678  00000-0 -21297-3 0  9998","EPOCH":"2022-09-24T18:22:51.432384","LAUNCH_DATE":"2022-01-06"},{"RA_OF_ASC_NODE":"74.3097","GP_ID":"213405757","NORAD_CAT_ID":"50837","EPHEMERIS_TYPE":"0","RCS_SIZE":"LARGE","MEAN_MOTION_DDOT":"0.0000000000000","APOAPSIS":"540.754","ELEMENT_SET_NO":"999","OBJECT_ID":"2022-001AL","COUNTRY_CODE":"US","INCLINATION":"53.2191","DECAY_DATE":null,"REF_FRAME":"TEME","ECCENTRICITY":"0.00015020","FILE":"3582616","TLE_LINE2":"2 50837  53.2191  74.3097 0001502  58.9141 301.1998 15.08849953 39894","TIME_SYSTEM":"UTC","SEMIMAJOR_AXIS":"6917.850","MEAN_MOTION_DOT":"0.00001552","REV_AT_EPOCH":"3989","OBJECT_NAME":"STARLINK-3318","TLE_LINE1":"1 50837U 22001AL  22267.72630528  .00001552  00000-0  11558-3 0  9996","EPOCH":"2022-09-24T17:25:52.776192","LAUNCH_DATE":"2022-01-06","OBJECT_TYPE":"PAYLOAD","MEAN_MOTION":"15.08849953","CLASSIFICATION_TYPE":"U","BSTAR":"0.00011558000000","SITE":"AFETR","PERIAPSIS":"538.676","PERIOD":"95.437","MEAN_ANOMALY":"301.1998","CENTER_NAME":"EARTH","ARG_OF_PERICENTER":"58.9141","MEAN_ELEMENT_THEORY":"SGP4"},{"ECCENTRICITY":"0.00017570","TLE_LINE2":"2 50838  53.2190  84.2734 0001757  53.4313 306.6841 15.08846068 39751","FILE":"3582616","TIME_SYSTEM":"UTC","SEMIMAJOR_AXIS":"6917.862","MEAN_MOTION_DOT":"0.00000669","REV_AT_EPOCH":"3975","OBJECT_NAME":"STARLINK-3322","TLE_LINE1":"1 50838U 22001AM  22267.73275517  .00000669  00000-0  60099-4 0  9994","EPOCH":"2022-09-24T17:35:10.046688","LAUNCH_DATE":"2022-01-06","OBJECT_TYPE":"PAYLOAD","MEAN_MOTION":"15.08846068","CLASSIFICATION_TYPE":"U","BSTAR":"0.00006009900000","SITE":"AFETR","PERIAPSIS":"538.511","CENTER_NAME":"EARTH","PERIOD":"95.437","MEAN_ELEMENT_THEORY":"SGP4","ARG_OF_PERICENTER":"53.4313","MEAN_ANOMALY":"306.6841","RA_OF_ASC_NODE":"84.2734","GP_ID":"213406008","NORAD_CAT_ID":"50838","EPHEMERIS_TYPE":"0","RCS_SIZE":"LARGE","APOAPSIS":"540.942","MEAN_MOTION_DDOT":"0.0000000000000","ELEMENT_SET_NO":"999","OBJECT_ID":"2022-001AM","COUNTRY_CODE":"US","INCLINATION":"53.2190","DECAY_DATE":null,"REF_FRAME":"TEME"},{"REF_FRAME":"TEME","DECAY_DATE":null,"COUNTRY_CODE":"US","INCLINATION":"53.2181","MEAN_MOTION_DDOT":"0.0000000000000","APOAPSIS":"540.818","ELEMENT_SET_NO":"999","OBJECT_ID":"2022-001AN","EPHEMERIS_TYPE":"0","RCS_SIZE":"LARGE","GP_ID":"213406759","NORAD_CAT_ID":"50839","RA_OF_ASC_NODE":"83.9201","PERIAPSIS":"538.676","PERIOD":"95.438","ARG_OF_PERICENTER":"60.2318","MEAN_ELEMENT_THEORY":"SGP4","CENTER_NAME":"EARTH","MEAN_ANOMALY":"299.8828","SITE":"AFETR","OBJECT_TYPE":"PAYLOAD","MEAN_MOTION":"15.08839377","CLASSIFICATION_TYPE":"U","BSTAR":"0.00006238600000","OBJECT_NAME":"STARLINK-3320","EPOCH":"2022-09-24T19:26:27.140640","TLE_LINE1":"1 50839U 22001AN  22267.81003635  .00000705  00000-0  62386-4 0  9996","LAUNCH_DATE":"2022-01-06","MEAN_MOTION_DOT":"0.00000705","REV_AT_EPOCH":"3975","TIME_SYSTEM":"UTC","SEMIMAJOR_AXIS":"6917.882","ECCENTRICITY":"0.00015480","FILE":"3582616","TLE_LINE2":"2 50839  53.2181  83.9201 0001548  60.2318 299.8828 15.08839377 39759"},{"MEAN_MOTION_DOT":"0.00002621","REV_AT_EPOCH":"3975","ECCENTRICITY":"0.00018700","FILE":"3582616","TLE_LINE2":"2 50840  53.2182  83.9242 0001870  64.2866 295.8319 15.08846216 39758","TIME_SYSTEM":"UTC","SEMIMAJOR_AXIS":"6917.861","SITE":"AFETR","PERIAPSIS":"538.433","PERIOD":"95.437","MEAN_ELEMENT_THEORY":"SGP4","CENTER_NAME":"EARTH","ARG_OF_PERICENTER":"64.2866","MEAN_ANOMALY":"295.8319","OBJECT_NAME":"STARLINK-3295","TLE_LINE1":"1 50840U 22001AP  22267.80635123  .00002621  00000-0  18268-3 0  9998","EPOCH":"2022-09-24T19:21:08.746272","LAUNCH_DATE":"2022-01-06","OBJECT_TYPE":"PAYLOAD","MEAN_MOTION":"15.08846216","CLASSIFICATION_TYPE":"U","BSTAR":"0.00018268000000","GP_ID":"213405007","NORAD_CAT_ID":"50840","EPHEMERIS_TYPE":"0","RCS_SIZE":"LARGE","RA_OF_ASC_NODE":"83.9242","DECAY_DATE":null,"REF_FRAME":"TEME","MEAN_MOTION_DDOT":"0.0000000000000","APOAPSIS":"541.020","OBJECT_ID":"2022-001AP","ELEMENT_SET_NO":"999","COUNTRY_CODE":"US","INCLINATION":"53.2182"},{"TIME_SYSTEM":"UTC","SEMIMAJOR_AXIS":"6917.854","FILE":"3582616","TLE_LINE2":"2 50841  53.2183  83.8872 0001812  52.2689 307.8467 15.08848746 39763","ECCENTRICITY":"0.00018120","MEAN_MOTION_DOT":"0.00003217","REV_AT_EPOCH":"3976","CLASSIFICATION_TYPE":"U","BSTAR":"0.00022009000000","OBJECT_TYPE":"PAYLOAD","MEAN_MOTION":"15.08848746","LAUNCH_DATE":"2022-01-06","OBJECT_NAME":"STARLINK-3300","TLE_LINE1":"1 50841U 22001AQ  22267.81739185  .00003217  00000-0  22009-3 0  9993","EPOCH":"2022-09-24T19:37:02.655840","ARG_OF_PERICENTER":"52.2689","PERIOD":"95.437","MEAN_ELEMENT_THEORY":"SGP4","MEAN_ANOMALY":"307.8467","CENTER_NAME":"EARTH","PERIAPSIS":"538.465","SITE":"AFETR","RA_OF_ASC_NODE":"83.8872","EPHEMERIS_TYPE":"0","RCS_SIZE":"LARGE","NORAD_CAT_ID":"50841","GP_ID":"213405257","INCLINATION":"53.2183","COUNTRY_CODE":"US","ELEMENT_SET_NO":"999","OBJECT_ID":"2022-001AQ","MEAN_MOTION_DDOT":"0.0000000000000","APOAPSIS":"540.972","DECAY_DATE":null,"REF_FRAME":"TEME"}];
